<?xml version="1.0" encoding="UTF-8"?>
<kml xmlns="http://www.opengis.net/kml/2.2">
    <Document>
        <name>Massachusetts</name>
        <Style id="line-7CB342-3325-normal">
            <LineStyle>
                <color>ff42b37c</color>
                <width>3.325</width>
            </LineStyle>
        </Style>
        <Style id="line-7CB342-3325-highlight">
            <LineStyle>
                <color>ff42b37c</color>
                <width>4.9875</width>
            </LineStyle>
        </Style>
        <StyleMap id="line-7CB342-3325">
            <Pair>
                <key>normal</key>
                <styleUrl>#line-7CB342-3325-normal</styleUrl>
            </Pair>
            <Pair>
                <key>highlight</key>
                <styleUrl>#line-7CB342-3325-highlight</styleUrl>
            </Pair>
        </StyleMap>
        <Placemark>
            <name>Brookline and Pepperell</name>
            <description>Massachusetts Section</description>
            <styleUrl>#line-7CB342-3325</styleUrl>
            <LineString>
                <tessellate>1</tessellate>
                <coordinates>
                    -71.6128989,42.7042222,0
                    -71.6092586,42.7021654,0
                    -71.6030576,42.6986359,0
                    -71.600933,42.6974187,0
                    -71.598916,42.6961886,0
                    -71.5979504,42.6957155,0
                    -71.5968346,42.6954159,0
                    -71.5960496,42.6952649,0
                    -71.5951609,42.6951005,0
                    -71.5942382,42.6950689,0
                    -71.5935656,42.6949829,0
                    -71.5929293,42.6948324,0
                    -71.5922956,42.6944509,0
                    -71.5915989,42.6939807,0
                    -71.5909766,42.6934603,0
                    -71.5875434,42.6895331,0
                    -71.5860199,42.6875458,0
                    -71.5857586,42.6866559,0
                    -71.5857776,42.6857239,0
                    -71.5858268,42.6849117,0
                    -71.5860628,42.6837444,0
                    -71.5864056,42.6828639,0
                    -71.5869426,42.6815045,0
                    -71.5870496,42.6811089,0
                    -71.5869686,42.6800799,0
                    -71.5868138,42.6794065,0
                    -71.5864491,42.6788544,0
                    -71.5856122,42.6776871,0
                    -71.5843462,42.6762673,0
                    -71.5834021,42.6752418,0
                    -71.5830166,42.6746879,0
                    -71.5827369,42.6737273,0
                    -71.5825223,42.6725441,0
                    -71.5824794,42.671282,0
                    -71.5823106,42.6704899,0
                    -71.5819429,42.6698936,0
                    -71.5815352,42.6692625,0
                    -71.5813526,42.6685899,0
                    -71.5813636,42.6679214,0
                    -71.5815996,42.6673376,0
                    -71.5819859,42.6665645,0
                    -71.582415,42.6656888,0
                    -71.5827691,42.6649788,0
                    -71.5830096,42.6643159,0
                    -71.5831017,42.6638033,0
                    -71.5831017,42.6632984,0
                    -71.5830158,42.6625884,0
                    -71.582651,42.6617678,0
                    -71.5818142,42.6598979,0
                    -71.5815889,42.6589275,0
                    -71.5816318,42.6579096,0
                    -71.5818142,42.6568603,0
                    -71.5823077,42.655945,0
                    -71.5833162,42.6544616,0
                    -71.5844964,42.6529466,0
                    -71.5856766,42.6514,0
                    -71.5866422,42.6501374,0
                    -71.5876936,42.6487486,0
                    -71.5883802,42.6477227,0
                    -71.5891286,42.6466769,0
                    -71.5897816,42.6456039,0
                    -71.5904402,42.6442504,0
                    -71.5917586,42.6417959,0
                    -71.5933691,42.6385838,0
                    -71.5949902,42.6355116,0
                    -71.5961538,42.6332404,0
                    -71.5970278,42.6316102,0
                    -71.5974193,42.6310893,0
                    -71.5978152,42.6307075,0
                    -71.5982776,42.6303788,0
                    -71.5988886,42.6301471,0
                    -71.5995745,42.6299913,0
                    -71.6004985,42.6299211,0
                    -71.6012388,42.6300157,0
                    -71.6020273,42.6303078,0
                    -71.6026288,42.6306015,0
                    -71.6034029,42.6309679,0
                    -71.6041141,42.631259,0
                    -71.6044226,42.6313419,0
                    -71.6048705,42.6314011,0
                    -71.605482,42.6314169,0
                    -71.605997,42.6313537,0
                    -71.6066193,42.6311327,0
                    -71.6071826,42.6308979,0
                    -71.6075447,42.6306848,0
                    -71.6079539,42.6303794,0
                    -71.6081035,42.6302061,0
                    -71.6082155,42.630009,0
                    -71.6083512,42.6297415,0
                    -71.6085336,42.6292856,0
                    -71.6086731,42.628885,0
                    -71.6087844,42.6284883,0
                    -71.6089628,42.6274725,0
                    -71.6092015,42.6261009,0
                    -71.6093155,42.6255848,0
                    -71.6093537,42.6253406,0
                    -71.6093597,42.6250727,0
                    -71.6092914,42.6245467,0
                    -71.6090942,42.6239734,0
                    -71.6089051,42.6232737,0
                    -71.6087267,42.6224872,0
                    -71.6084907,42.6212991,0
                    -71.607442,42.6163321,0
                    -71.6071592,42.6153551,0
                    -71.6070908,42.6149692,0
                    -71.6070976,42.6145596,0
                    -71.6071592,42.6138746,0
                    -71.6073068,42.6133634,0
                    -71.6075294,42.6128679,0
                    -71.6080712,42.6122363,0
                    -71.6086774,42.6116362,0
                    -71.6097047,42.6109255,0
                    -71.6105174,42.6104518,0
                    -71.6121106,42.6095042,0
                    -71.6125022,42.6091844,0
                    -71.6128294,42.6088093,0
                    -71.6132371,42.6082408,0
                    -71.6142027,42.6067089,0
                    -71.6148035,42.6057297,0
                    -71.6153185,42.604861,0
                    -71.6158335,42.603945,0
                    -71.6165416,42.6026341,0
                    -71.6170995,42.6015127,0
                    -71.6182368,42.5995699,0
                    -71.6188376,42.5985748,0
                    -71.6192453,42.598022,0
                    -71.6196315,42.5976429,0
                    -71.6200821,42.597248,0
                    -71.6205327,42.5969005,0
                    -71.6211121,42.5965372,0
                    -71.6217344,42.5961265,0
                    -71.6222708,42.5957948,0
                    -71.6225927,42.5954789,0
                    -71.6229145,42.5949892,0
                    -71.6230862,42.5945311,0
                    -71.6231935,42.5941994,0
                    -71.6232149,42.5938835,0
                    -71.6232149,42.5936465,0
                    -71.623172,42.5934096,0
                    -71.6230433,42.59322,0
                    -71.6226785,42.5928567,0
                    -71.6222923,42.5925092,0
                    -71.6217987,42.5921142,0
                </coordinates>
            </LineString>
        </Placemark>
    </Document>
    <Document>
    <name>NH - Southern</name>
    <Style id="line-0000FF-5000-normal">
        <LineStyle>
            <color>ffff0000</color>
            <width>5</width>
        </LineStyle>
    </Style>
    <Style id="line-0000FF-5000-highlight">
        <LineStyle>
            <color>ffff0000</color>
            <width>7.5</width>
        </LineStyle>
    </Style>
    <StyleMap id="line-0000FF-5000">
        <Pair>
            <key>normal</key>
            <styleUrl>#line-0000FF-5000-normal</styleUrl>
        </Pair>
        <Pair>
            <key>highlight</key>
            <styleUrl>#line-0000FF-5000-highlight</styleUrl>
        </Pair>
    </StyleMap>
    <Style id="line-097138-3519-nodesc-normal">
        <LineStyle>
            <color>ff387109</color>
            <width>3.519</width>
        </LineStyle>
        <BalloonStyle>
            <text><![CDATA[<h3>$[name]</h3>]]></text>
        </BalloonStyle>
    </Style>
    <Style id="line-097138-3519-nodesc-highlight">
        <LineStyle>
            <color>ff387109</color>
            <width>5.2785</width>
        </LineStyle>
        <BalloonStyle>
            <text><![CDATA[<h3>$[name]</h3>]]></text>
        </BalloonStyle>
    </Style>
    <StyleMap id="line-097138-3519-nodesc">
        <Pair>
            <key>normal</key>
            <styleUrl>#line-097138-3519-nodesc-normal</styleUrl>
        </Pair>
        <Pair>
            <key>highlight</key>
            <styleUrl>#line-097138-3519-nodesc-highlight</styleUrl>
        </Pair>
    </StyleMap>
    <Style id="line-097138-3713-normal">
        <LineStyle>
            <color>ff387109</color>
            <width>3.713</width>
        </LineStyle>
    </Style>
    <Style id="line-097138-3713-highlight">
        <LineStyle>
            <color>ff387109</color>
            <width>5.5695</width>
        </LineStyle>
    </Style>
    <StyleMap id="line-097138-3713">
        <Pair>
            <key>normal</key>
            <styleUrl>#line-097138-3713-normal</styleUrl>
        </Pair>
        <Pair>
            <key>highlight</key>
            <styleUrl>#line-097138-3713-highlight</styleUrl>
        </Pair>
    </StyleMap>
    <Style id="line-6600CC-5000-normal">
        <LineStyle>
            <color>ffcc0066</color>
            <width>5</width>
        </LineStyle>
    </Style>
    <Style id="line-6600CC-5000-highlight">
        <LineStyle>
            <color>ffcc0066</color>
            <width>7.5</width>
        </LineStyle>
    </Style>
    <StyleMap id="line-6600CC-5000">
        <Pair>
            <key>normal</key>
            <styleUrl>#line-6600CC-5000-normal</styleUrl>
        </Pair>
        <Pair>
            <key>highlight</key>
            <styleUrl>#line-6600CC-5000-highlight</styleUrl>
        </Pair>
    </StyleMap>
    <Style id="line-7CB342-3325-normal">
        <LineStyle>
            <color>ff42b37c</color>
            <width>3.325</width>
        </LineStyle>
    </Style>
    <Style id="line-7CB342-3325-highlight">
        <LineStyle>
            <color>ff42b37c</color>
            <width>4.9875</width>
        </LineStyle>
    </Style>
    <StyleMap id="line-7CB342-3325">
        <Pair>
            <key>normal</key>
            <styleUrl>#line-7CB342-3325-normal</styleUrl>
        </Pair>
        <Pair>
            <key>highlight</key>
            <styleUrl>#line-7CB342-3325-highlight</styleUrl>
        </Pair>
    </StyleMap>
    <Style id="line-993399-5000-normal">
        <LineStyle>
            <color>ff993399</color>
            <width>5</width>
        </LineStyle>
    </Style>
    <Style id="line-993399-5000-highlight">
        <LineStyle>
            <color>ff993399</color>
            <width>7.5</width>
        </LineStyle>
    </Style>
    <StyleMap id="line-993399-5000">
        <Pair>
            <key>normal</key>
            <styleUrl>#line-993399-5000-normal</styleUrl>
        </Pair>
        <Pair>
            <key>highlight</key>
            <styleUrl>#line-993399-5000-highlight</styleUrl>
        </Pair>
    </StyleMap>
    <Style id="line-FF0000-5000-normal">
        <LineStyle>
            <color>ff0000ff</color>
            <width>5</width>
        </LineStyle>
    </Style>
    <Style id="line-FF0000-5000-highlight">
        <LineStyle>
            <color>ff0000ff</color>
            <width>7.5</width>
        </LineStyle>
    </Style>
    <StyleMap id="line-FF0000-5000">
        <Pair>
            <key>normal</key>
            <styleUrl>#line-FF0000-5000-normal</styleUrl>
        </Pair>
        <Pair>
            <key>highlight</key>
            <styleUrl>#line-FF0000-5000-highlight</styleUrl>
        </Pair>
    </StyleMap>
    <Style id="line-FF6600-5000-normal">
        <LineStyle>
            <color>ff0066ff</color>
            <width>5</width>
        </LineStyle>
    </Style>
    <Style id="line-FF6600-5000-highlight">
        <LineStyle>
            <color>ff0066ff</color>
            <width>7.5</width>
        </LineStyle>
    </Style>
    <StyleMap id="line-FF6600-5000">
        <Pair>
            <key>normal</key>
            <styleUrl>#line-FF6600-5000-normal</styleUrl>
        </Pair>
        <Pair>
            <key>highlight</key>
            <styleUrl>#line-FF6600-5000-highlight</styleUrl>
        </Pair>
    </StyleMap>
    <Placemark>
        <name>Brookline and Pepperell</name>
        <description>Built by the Fitchburg R/R and absorbed into Boston and Maine R/R</description>
        <styleUrl>#line-7CB342-3325</styleUrl>
        <LineString>
            <tessellate>1</tessellate>
            <coordinates>
                -71.6128989,42.7042222,0
                -71.614959,42.705401,0
                -71.61586,42.705792,0
                -71.616805,42.705997,0
                -71.617298,42.706045,0
                -71.617824,42.706021,0
                -71.6188913,42.7058834,0
                -71.620806,42.705636,0
                -71.623435,42.705209,0
                -71.625066,42.70498,0
                -71.626697,42.704862,0
                -71.630248,42.704937,0
                -71.6337829,42.705075,0
                -71.6350462,42.7052442,0
                -71.6356511,42.70538,0
                -71.6361701,42.7055632,0
                -71.637318,42.706194,0
                -71.638359,42.706928,0
                -71.639174,42.707582,0
                -71.640226,42.70815,0
                -71.641277,42.708623,0
                -71.642189,42.709206,0
                -71.642994,42.709963,0
                -71.643659,42.710814,0
                -71.644968,42.712466,0
                -71.648058,42.714874,0
                -71.6484973,42.7153391,0
                -71.6491623,42.7158749,0
                -71.6505684,42.7165529,0
                -71.6518454,42.7170652,0
                -71.6531324,42.7175783,0
                -71.6558473,42.71865,0
                -71.657048,42.7192173,0
                -71.6591243,42.7205064,0
                -71.659602,42.7208097,0
                -71.659994,42.72107,0
                -71.6607139,42.7219901,0
                -71.6614338,42.723194,0
                -71.662745,42.725381,0
                -71.663336,42.726965,0
                -71.663797,42.728565,0
                -71.664194,42.729401,0
                -71.6644245,42.7298578,0
                -71.6647195,42.7302909,0
                -71.6651164,42.7308151,0
                -71.665685,42.731363,0
                -71.6671117,42.7324269,0
                -71.668807,42.7335613,0
                -71.669505,42.734129,0
                -71.670095,42.734625,0
                -71.670567,42.735169,0
                -71.670974,42.7358,0
                -71.670996,42.736446,0
                -71.6709477,42.7367688,0
                -71.670878,42.73706,0
                -71.670642,42.737588,0
                -71.6702233,42.738408,0
                -71.670014,42.7388997,0
                -71.6698046,42.739423,0
                -71.66959,42.740048,0
                -71.6695689,42.7405681,0
                -71.6696123,42.7409306,0
                -71.6696872,42.7412104,0
                -71.669848,42.741569,0
                -71.6700033,42.7418135,0
                -71.670223,42.742058,0
                -71.6705345,42.7423061,0
                -71.670846,42.742507,0
                -71.671715,42.74283,0
                -71.672519,42.743106,0
                -71.6738603,42.7434996,0
                -71.6744129,42.7437359,0
                -71.6748905,42.7439879,0
                -71.6752554,42.7444096,0
                -71.6755881,42.7448392,0
                -71.67597,42.745857,0
                -71.6758665,42.746508,0
                -71.675609,42.7469334,0
                -71.675228,42.747283,0
                -71.674741,42.747748,0
                -71.674223,42.748326,0
                -71.6740212,42.748714,0
                -71.673871,42.749023,0
                -71.6738012,42.7495415,0
                -71.6739461,42.7500916,0
                -71.6747936,42.7515699,0
                -71.6754159,42.7532165,0
                -71.6755554,42.7535946,0
                -71.6756627,42.7542879,0
                -71.6757056,42.7548708,0
                -71.6756949,42.7556822,0
                -71.6755983,42.7588017,0
                -71.6755554,42.7605268,0
                -71.6755876,42.7622125,0
                -71.6756198,42.7640951,0
                -71.6756627,42.7669385,0
                -71.6756949,42.7688602,0
                -71.6757056,42.7702464,0
                -71.6756841,42.7707032,0
                -71.6755698,42.7718272,0
                -71.6754159,42.7728139,0
                -71.675175,42.773595,0
                -71.6749868,42.7741054,0
                -71.6747293,42.7746567,0
                -71.6744825,42.7751607,0
                -71.6741928,42.775712,0
                -71.6739246,42.7761609,0
                -71.6735384,42.7766649,0
                -71.671916,42.778611,0
                -71.6715106,42.7792242,0
                -71.670833,42.780288,0
                -71.6697296,42.7817756,0
                -71.6673156,42.7848938,0
                -71.6657385,42.7866811,0
                -71.6646764,42.7879567,0
                -71.6638502,42.7889802,0
                -71.6632387,42.7901219,0
                -71.6629812,42.7907753,0
                -71.6627452,42.7917516,0
                -71.6626271,42.7923342,0
                -71.6625735,42.7932475,0
                -71.6626057,42.7950425,0
                -71.6626379,42.7986087,0
                -71.6625842,42.8015056,0
                -71.6624971,42.8023864,0
                -71.6623242,42.8032672,0
                -71.6621512,42.8040653,0
                -71.6619247,42.8048871,0
                -71.6617358,42.8055757,0
                -71.661502,42.806385,0
                -71.6614451,42.8066267,0
                -71.6614418,42.8068369,0
                -71.6614885,42.8070839,0
                -71.6615566,42.8072757,0
                -71.6617089,42.8076357,0
                -71.6619203,42.8079801,0
                -71.6625306,42.808645,0
                -71.663539,42.809425,0
                -71.6638985,42.8097749,0
                -71.6641614,42.8101247,0
                -71.6644028,42.8105379,0
                -71.6645905,42.8109748,0
                -71.6647596,42.8116507,0
                -71.6647621,42.8122183,0
                -71.6646978,42.8127142,0
                -71.6645369,42.8134225,0
                -71.6642419,42.8144457,0
                -71.6640004,42.8150635,0
                -71.6638448,42.8153566,0
                -71.6636517,42.8155888,0
                -71.6632387,42.8159567,0
                -71.6628847,42.8162479,0
                -71.6625091,42.8165234,0
                -71.662155,42.8167831,0
                -71.6617044,42.8170663,0
                -71.6610929,42.8173733,0
                -71.6605672,42.8175701,0
                -71.6600844,42.8177274,0
                -71.659679,42.817837,0
                -71.6592797,42.8179085,0
                -71.6588506,42.8179557,0
                -71.6578743,42.817995,0
                -71.6571125,42.8180108,0
                -71.6564688,42.8179793,0
                -71.654783,42.817881,0
                -71.6530785,42.8179085,0
                -71.6516408,42.8179399,0
                -71.6508683,42.8179793,0
                -71.6504177,42.818058,0
                -71.6500959,42.8182154,0
                -71.6497525,42.8183885,0
                -71.6493019,42.8186954,0
                -71.6488835,42.8190023,0
                -71.6485938,42.8193093,0
                -71.6483578,42.8196319,0
                -71.6481969,42.8199467,0
                -71.6481432,42.8203323,0
                -71.648229,42.820773,0
                -71.64839,42.8214655,0
                -71.6485831,42.822276,0
                -71.64871,42.822763,0
                -71.6487869,42.8232912,0
                -71.648835,42.823938,0
                -71.6490123,42.8248807,0
                -71.6494736,42.8272728,0
                -71.6497204,42.828815,0
                -71.64982,42.82919,0
                -71.649952,42.829455,0
                -71.650064,42.829681,0
                -71.6501066,42.8299638,0
                -71.6501059,42.8302683,0
                -71.6500637,42.830491,0
                -71.6499778,42.8307349,0
                -71.649843,42.83102,0
                -71.6496882,42.8312542,0
                -71.6494736,42.8314902,0
                -71.6492054,42.8316948,0
                -71.6489801,42.8318285,0
                -71.648588,42.832039,0
                -71.64823,42.832208,0
                -71.647826,42.832358,0
                -71.6475102,42.8324658,0
                -71.6471832,42.832549,0
                -71.6468611,42.8325898,0
                -71.6463837,42.8325839,0
                -71.646094,42.8325681,0
                -71.64574,42.8325209,0
                -71.6452679,42.8324186,0
                -71.6449246,42.8323085,0
            </coordinates>
        </LineString>
    </Placemark>
</Document>
</kml>
