<?xml version="1.0" encoding="UTF-8"?>
<kml xmlns="http://www.opengis.net/kml/2.2">
  <Document>
    <name>Massachusetts</name>
    <Style id="line-7CB342-3325-normal">
      <LineStyle>
        <color>ff42b37c</color>
        <width>3.325</width>
      </LineStyle>
    </Style>
    <Style id="line-7CB342-3325-highlight">
      <LineStyle>
        <color>ff42b37c</color>
        <width>4.9875</width>
      </LineStyle>
    </Style>
    <StyleMap id="line-7CB342-3325">
      <Pair>
        <key>normal</key>
        <styleUrl>#line-7CB342-3325-normal</styleUrl>
      </Pair>
      <Pair>
        <key>highlight</key>
        <styleUrl>#line-7CB342-3325-highlight</styleUrl>
      </Pair>
    </StyleMap>
    <Placemark>
      <name>Brookline and Pepperell</name>
      <description>Massachusetts Section</description>
      <styleUrl>#line-7CB342-3325</styleUrl>
      <LineString>
        <tessellate>1</tessellate>
        <coordinates>
          -71.6128989,42.7042222,0
          -71.6092586,42.7021654,0
          -71.6030576,42.6986359,0
          -71.600933,42.6974187,0
          -71.598916,42.6961886,0
          -71.5979504,42.6957155,0
          -71.5968346,42.6954159,0
          -71.5960496,42.6952649,0
          -71.5951609,42.6951005,0
          -71.5942382,42.6950689,0
          -71.5935656,42.6949829,0
          -71.5929293,42.6948324,0
          -71.5922956,42.6944509,0
          -71.5915989,42.6939807,0
          -71.5909766,42.6934603,0
          -71.5875434,42.6895331,0
          -71.5860199,42.6875458,0
          -71.5857586,42.6866559,0
          -71.5857776,42.6857239,0
          -71.5858268,42.6849117,0
          -71.5860628,42.6837444,0
          -71.5864056,42.6828639,0
          -71.5869426,42.6815045,0
          -71.5870496,42.6811089,0
          -71.5869686,42.6800799,0
          -71.5868138,42.6794065,0
          -71.5864491,42.6788544,0
          -71.5856122,42.6776871,0
          -71.5843462,42.6762673,0
          -71.5834021,42.6752418,0
          -71.5830166,42.6746879,0
          -71.5827369,42.6737273,0
          -71.5825223,42.6725441,0
          -71.5824794,42.671282,0
          -71.5823106,42.6704899,0
          -71.5819429,42.6698936,0
          -71.5815352,42.6692625,0
          -71.5813526,42.6685899,0
          -71.5813636,42.6679214,0
          -71.5815996,42.6673376,0
          -71.5819859,42.6665645,0
          -71.582415,42.6656888,0
          -71.5827691,42.6649788,0
          -71.5830096,42.6643159,0
          -71.5831017,42.6638033,0
          -71.5831017,42.6632984,0
          -71.5830158,42.6625884,0
          -71.582651,42.6617678,0
          -71.5818142,42.6598979,0
          -71.5815889,42.6589275,0
          -71.5816318,42.6579096,0
          -71.5818142,42.6568603,0
          -71.5823077,42.655945,0
          -71.5833162,42.6544616,0
          -71.5844964,42.6529466,0
          -71.5856766,42.6514,0
          -71.5866422,42.6501374,0
          -71.5876936,42.6487486,0
          -71.5883802,42.6477227,0
          -71.5891286,42.6466769,0
          -71.5897816,42.6456039,0
          -71.5904402,42.6442504,0
          -71.5917586,42.6417959,0
          -71.5933691,42.6385838,0
          -71.5949902,42.6355116,0
          -71.5961538,42.6332404,0
          -71.5970278,42.6316102,0
          -71.5974193,42.6310893,0
          -71.5978152,42.6307075,0
          -71.5982776,42.6303788,0
          -71.5988886,42.6301471,0
          -71.5995745,42.6299913,0
          -71.6004985,42.6299211,0
          -71.6012388,42.6300157,0
          -71.6020273,42.6303078,0
          -71.6026288,42.6306015,0
          -71.6034029,42.6309679,0
          -71.6041141,42.631259,0
          -71.6044226,42.6313419,0
          -71.6048705,42.6314011,0
          -71.605482,42.6314169,0
          -71.605997,42.6313537,0
          -71.6066193,42.6311327,0
          -71.6071826,42.6308979,0
          -71.6075447,42.6306848,0
          -71.6079539,42.6303794,0
          -71.6081035,42.6302061,0
          -71.6082155,42.630009,0
          -71.6083512,42.6297415,0
          -71.6085336,42.6292856,0
          -71.6086731,42.628885,0
          -71.6087844,42.6284883,0
          -71.6089628,42.6274725,0
          -71.6092015,42.6261009,0
          -71.6093155,42.6255848,0
          -71.6093537,42.6253406,0
          -71.6093597,42.6250727,0
          -71.6092914,42.6245467,0
          -71.6090942,42.6239734,0
          -71.6089051,42.6232737,0
          -71.6087267,42.6224872,0
          -71.6084907,42.6212991,0
          -71.607442,42.6163321,0
          -71.6071592,42.6153551,0
          -71.6070908,42.6149692,0
          -71.6070976,42.6145596,0
          -71.6071592,42.6138746,0
          -71.6073068,42.6133634,0
          -71.6075294,42.6128679,0
          -71.6080712,42.6122363,0
          -71.6086774,42.6116362,0
          -71.6097047,42.6109255,0
          -71.6105174,42.6104518,0
          -71.6121106,42.6095042,0
          -71.6125022,42.6091844,0
          -71.6128294,42.6088093,0
          -71.6132371,42.6082408,0
          -71.6142027,42.6067089,0
          -71.6148035,42.6057297,0
          -71.6153185,42.604861,0
          -71.6158335,42.603945,0
          -71.6165416,42.6026341,0
          -71.6170995,42.6015127,0
          -71.6182368,42.5995699,0
          -71.6188376,42.5985748,0
          -71.6192453,42.598022,0
          -71.6196315,42.5976429,0
          -71.6200821,42.597248,0
          -71.6205327,42.5969005,0
          -71.6211121,42.5965372,0
          -71.6217344,42.5961265,0
          -71.6222708,42.5957948,0
          -71.6225927,42.5954789,0
          -71.6229145,42.5949892,0
          -71.6230862,42.5945311,0
          -71.6231935,42.5941994,0
          -71.6232149,42.5938835,0
          -71.6232149,42.5936465,0
          -71.623172,42.5934096,0
          -71.6230433,42.59322,0
          -71.6226785,42.5928567,0
          -71.6222923,42.5925092,0
          -71.6217987,42.5921142,0
        </coordinates>
      </LineString>
    </Placemark>
  </Document>
</kml>
